OBJECT_NAME,OBJECT_ID,EPOCH,MEAN_MOTION,ECCENTRICITY,INCLINATION,RA_OF_ASC_NODE,ARG_OF_PERICENTER,MEAN_ANOMALY,EPHEMERIS_TYPE,CLASSIFICATION_TYPE,NORAD_CAT_ID,ELEMENT_SET_NO,REV_AT_EPOCH,BSTAR,MEAN_MOTION_DOT,MEAN_MOTION_DDOT
FENGYUN 3D,2017-072A,2026-07-13T13:48:30.825792,14.19743249,.0001673,99.0134,169.4763,17.6358,342.4875,0,U,43010,999,44873,-.83868627E-4,-.224E-5,0
NOAA 20 (JPSS-1),2017-073A,2026-07-13T13:47:30.312960,14.19516240,.00013272,98.7773,133.8034,125.7892,234.3408,0,U,43013,999,44821,.28541868E-4,.16E-6,0
GOES 17,2018-022A,2026-07-13T14:45:02.606400,1.00271265,.00005303,1.0025,85.2818,85.2007,252.7733,0,U,43226,999,3068,0,-.188E-5,0
SENTINEL-3B,2018-039A,2026-07-13T15:05:16.185984,14.26735917,.00011124,98.6237,261.7799,119.0203,241.1089,0,U,43437,999,42789,.11205971E-4,-.17E-6,0
FENGYUN 2H,2018-050A,2026-07-13T13:50:26.988000,1.00267287,.00022981,3.0957,78.7604,133.3593,6.1015,0,U,43491,999,2970,0,-.134E-5,0
METOP-C,2018-087A,2026-07-13T14:29:48.391584,14.21518772,.00022139,98.6631,253.7230,95.9364,264.2066,0,U,43689,999,39858,.41684015E-4,.48E-6,0
GEO-KOMPSAT-2A,2018-100A,2026-07-13T13:47:54.376224,1.00270506,.00019416,0.0269,111.2926,350.6217,164.7758,0,U,43823,999,2789,0,-.348E-5,0
METEOR-M2 2,2019-038A,2026-07-13T14:05:09.678912,14.24372937,.00008505,98.9153,182.2634,6.0081,354.1107,0,U,44387,999,36505,.8154598E-4,.143E-5,0
ARKTIKA-M 1,2021-016A,2026-07-07T10:17:34.884672,2.00614486,.72950864,63.2524,54.6812,270.0380,14.5466,0,U,47719,999,3919,0,-.257E-5,0
FENGYUN 3E,2021-062A,2026-07-13T15:02:33.335808,14.19906891,.0002315,98.7497,197.7402,42.0289,318.1064,0,U,49008,999,26033,.10046149E-3,.169E-5,0
GOES 18,2022-021A,2026-07-13T14:31:26.409792,1.00269923,.00003959,0.0169,128.3655,67.3955,176.5766,0,U,51850,999,685,0,.93E-6,0
NOAA 21 (JPSS-2),2022-150A,2026-07-13T14:34:03.069408,14.19540859,.00027924,98.7060,132.9525,107.3984,252.7498,0,U,54234,999,19029,.14425865E-4,-.13E-6,0
METEOSAT-12 (MTG-I1),2022-170C,2026-07-13T08:19:49.197216,1.00267253,.00037618,0.7231,19.3869,82.4326,314.0654,0,U,54743,999,1324,0,-.12E-6,0
TIANMU-1 03,2023-039A,2026-07-13T14:58:16.209408,15.48013820,.00027204,97.5234,9.6438,31.2021,328.9390,0,U,55973,999,18492,.17724522E-3,.9171E-4,0
TIANMU-1 04,2023-039B,2026-07-13T16:01:09.585984,15.48638470,.00031595,97.5170,8.8450,18.8374,341.2992,0,U,55974,999,18494,.17442318E-3,.9223E-4,0
TIANMU-1 05,2023-039C,2026-07-13T14:32:26.506176,15.47937501,.00030999,97.5216,9.2301,49.7646,310.3874,0,U,55975,999,18490,.18240493E-3,.9416E-4,0
TIANMU-1 06,2023-039D,2026-07-13T14:35:25.639296,15.48534806,.00032084,97.5222,9.8949,41.6137,318.5357,0,U,55976,999,18493,.17479299E-3,.921E-4,0
FENGYUN 3G,2023-055A,2026-07-13T13:08:47.792832,15.53737121,.0007107,49.9903,210.0779,48.3295,311.8279,0,U,56232,999,18410,.20712087E-3,.13096E-3,0
METEOR-M2 3,2023-091A,2026-07-13T15:46:56.404992,14.24048838,.00051474,98.6069,249.0924,93.7510,266.4258,0,U,57166,999,15828,.15408288E-4,-.8E-7,0
TIANMU-1 07,2023-101A,2026-07-13T15:41:42.252864,15.30104223,.00038393,97.2581,244.7170,68.0731,292.0917,0,U,57399,999,16569,.12369901E-3,.353E-4,0
TIANMU-1 08,2023-101B,2026-07-13T14:53:33.969984,15.30107988,.00047578,97.2570,244.4511,50.7700,309.3963,0,U,57400,999,16568,.12667112E-3,.3617E-4,0
TIANMU-1 09,2023-101C,2026-07-13T14:28:48.186336,15.30148257,.00044533,97.2528,243.8366,68.4276,291.7439,0,U,57401,999,16568,.12657707E-3,.3619E-4,0
TIANMU-1 10,2023-101D,2026-07-13T15:17:03.909984,15.30122109,.00057736,97.2608,244.9469,58.7355,301.4451,0,U,57402,999,16568,.12950832E-3,.3702E-4,0
FENGYUN 3F,2023-111A,2026-07-13T14:38:28.866912,14.19943270,.00013037,98.6826,264.1251,76.9941,283.1381,0,U,57490,999,15261,.23679086E-4,.7E-7,0
ARKTIKA-M 2,2023-198A,2026-07-10T04:34:00.609312,2.00608615,.69090643,63.2187,151.7914,267.3543,18.7503,0,U,58584,999,1878,0,.186E-5,0
TIANMU-1 11,2023-205A,2026-07-13T14:10:57.110592,15.27253856,.0006761,97.3441,215.7368,269.2553,90.7911,0,U,58645,999,14155,.11769974E-3,.3071E-4,0
TIANMU-1 12,2023-205B,2026-07-13T15:05:18.585312,15.27085567,.00056906,97.3429,215.5216,241.4761,118.5905,0,U,58646,999,14154,.12192127E-3,.3167E-4,0
TIANMU-1 13,2023-205C,2026-07-13T14:19:05.795040,15.27077875,.00056409,97.3457,215.7694,218.9150,141.1684,0,U,58647,999,14153,.12251306E-3,.3182E-4,0
TIANMU-1 14,2023-205D,2026-07-13T13:56:41.316000,15.27122045,.00062806,97.3394,214.9153,226.9473,133.1241,0,U,58648,999,14153,.12666156E-3,.3297E-4,0
TIANMU-1 19,2023-208A,2026-07-13T14:43:12.332352,15.31960320,.00044342,97.4526,311.0575,204.1214,155.9820,0,U,58660,999,14137,.16043409E-3,.4872E-4,0
