FENGYUN 3D              
1 43010U 17072A   26194.57535678 -.00000224  00000+0 -83869-4 0  9990
2 43010  99.0134 169.4763 0001673  17.6358 342.4875 14.19743249448732
NOAA 20 (JPSS-1)        
1 43013U 17073A   26194.57465640  .00000016  00000+0  28542-4 0  9999
2 43013  98.7773 133.8034 0001327 125.7892 234.3408 14.19516240448219
GOES 17                 
1 43226U 18022A   26194.61461350 -.00000188  00000+0  00000+0 0  9994
2 43226   1.0025  85.2818 0000530  85.2007 252.7733  1.00271265 30689
SENTINEL-3B             
1 43437U 18039A   26194.62865956 -.00000017  00000+0  11206-4 0  9993
2 43437  98.6237 261.7799 0001112 119.0203 241.1089 14.26735917427890
FENGYUN 2H              
1 43491U 18050A   26194.57670125 -.00000134  00000+0  00000+0 0  9997
2 43491   3.0957  78.7604 0002298 133.3593   6.1015  1.00267287 29701
METOP-C                 
1 43689U 18087A   26194.60403231  .00000048  00000+0  41684-4 0  9993
2 43689  98.6631 253.7230 0002213  95.9364 264.2066 14.21518772398588
GEO-KOMPSAT-2A          
1 43823U 18100A   26194.57493491 -.00000348  00000+0  00000+0 0  9998
2 43823   0.0269 111.2926 0001941 350.6217 164.7758  1.00270506 27895
METEOR-M2 2             
1 44387U 19038A   26194.58691758  .00000143  00000+0  81546-4 0  9993
2 44387  98.9153 182.2634 0000850   6.0081 354.1107 14.24372937365059
ARKTIKA-M 1             
1 47719U 21016A   26188.42887598 -.00000257  00000+0  00000+0 0  9997
2 47719  63.2524  54.6812 7295086 270.0380  14.5466  2.00614486 39194
FENGYUN 3E              
1 49008U 21062A   26194.62677472  .00000169  00000+0  10046-3 0  9994
2 49008  98.7497 197.7402 0002315  42.0289 318.1064 14.19906891260338
GOES 18                 
1 51850U 22021A   26194.60516678  .00000093  00000+0  00000+0 0  9997
2 51850   0.0169 128.3655 0000395  67.3955 176.5766  1.00269923  6858
NOAA 21 (JPSS-2)        
1 54234U 22150A   26194.60697997 -.00000013  00000+0  14426-4 0  9998
2 54234  98.7060 132.9525 0002792 107.3984 252.7498 14.19540859190293
METEOSAT-12 (MTG-I1)    
1 54743U 22170C   26194.34709719 -.00000012  00000+0  00000+0 0  9999
2 54743   0.7231  19.3869 0003761  82.4326 314.0654  1.00267253 13245
TIANMU-1 03             
1 55973U 23039A   26194.62379872  .00009171  00000+0  17725-3 0  9994
2 55973  97.5234   9.6438 0002720  31.2021 328.9390 15.48013820184921
TIANMU-1 04             
1 55974U 23039B   26194.66747206  .00009223  00000+0  17442-3 0  9993
2 55974  97.5170   8.8450 0003159  18.8374 341.2992 15.48638470184947
TIANMU-1 05             
1 55975U 23039C   26194.60586234  .00009416  00000+0  18240-3 0  9991
2 55975  97.5216   9.2301 0003099  49.7646 310.3874 15.47937501184905
TIANMU-1 06             
1 55976U 23039D   26194.60793564  .00009210  00000+0  17479-3 0  9993
2 55976  97.5222   9.8949 0003208  41.6137 318.5357 15.48534806184936
FENGYUN 3G              
1 56232U 23055A   26194.54777538  .00013096  00000+0  20712-3 0  9994
2 56232  49.9903 210.0779 0007107  48.3295 311.8279 15.53737121184106
METEOR-M2 3             
1 57166U 23091A   26194.65759728 -.00000008  00000+0  15408-4 0  9991
2 57166  98.6069 249.0924 0005147  93.7510 266.4258 14.24048838158286
TIANMU-1 07             
1 57399U 23101A   26194.65396126  .00003530  00000+0  12370-3 0  9996
2 57399  97.2581 244.7170 0003839  68.0731 292.0917 15.30104223165698
TIANMU-1 08             
1 57400U 23101B   26194.62053206  .00003617  00000+0  12667-3 0  9990
2 57400  97.2570 244.4511 0004757  50.7700 309.3963 15.30107988165682
TIANMU-1 09             
1 57401U 23101C   26194.60333549  .00003619  00000+0  12658-3 0  9992
2 57401  97.2528 243.8366 0004453  68.4276 291.7439 15.30148257165680
TIANMU-1 10             
1 57402U 23101D   26194.63685081  .00003702  00000+0  12951-3 0  9996
2 57402  97.2608 244.9469 0005773  58.7355 301.4451 15.30122109165683
FENGYUN 3F              
1 57490U 23111A   26194.61005633  .00000007  00000+0  23679-4 0  9996
2 57490  98.6826 264.1251 0001303  76.9941 283.1381 14.19943270152611
ARKTIKA-M 2             
1 58584U 23198A   26191.19028483  .00000186  00000+0  00000+0 0  9990
2 58584  63.2187 151.7914 6909064 267.3543  18.7503  2.00608615 18787
TIANMU-1 11             
1 58645U 23205A   26194.59093878  .00003071  00000+0  11770-3 0  9990
2 58645  97.3441 215.7368 0006761 269.2553  90.7911 15.27253856141559
TIANMU-1 12             
1 58646U 23205B   26194.62868733  .00003167  00000+0  12192-3 0  9990
2 58646  97.3429 215.5216 0005690 241.4761 118.5905 15.27085567141542
TIANMU-1 13             
1 58647U 23205C   26194.59659485  .00003182  00000+0  12251-3 0  9992
2 58647  97.3457 215.7694 0005640 218.9150 141.1684 15.27077875141530
TIANMU-1 14             
1 58648U 23205D   26194.58103375  .00003297  00000+0  12666-3 0  9991
2 58648  97.3394 214.9153 0006280 226.9473 133.1241 15.27122045141530
TIANMU-1 19             
1 58660U 23208A   26194.61333718  .00004872  00000+0  16043-3 0  9991
2 58660  97.4526 311.0575 0004434 204.1214 155.9820 15.31960320141377
